#aV2011 12 10  0  0   .00000000      96 DD+AD WGS84 FIT  NGA
## 1665 518400.00000000   900.00000000 55905  .0000000000000
+   31     1  2  3  4  5  6  7  8  9 10 11 12 13 14 15 16 17
+         18 19 20 21 22 23 25 26 27 28 29 30 31 32  0  0  0
+          0  0  0  0  0  0  0  0  0  0  0  0  0  0  0  0  0
+          0  0  0  0  0  0  0  0  0  0  0  0  0  0  0  0  0
+          0  0  0  0  0  0  0  0  0  0  0  0  0  0  0  0  0
++         0  0  0  0  0  0  0  0  0  0  0  0  0  0  0  0  0
++         0  0  0  0  0  0  0  0  0  0  0  0  0  0  0  0  0
++         0  0  0  0  0  0  0  0  0  0  0  0  0  0  0  0  0
++         0  0  0  0  0  0  0  0  0  0  0  0  0  0  0  0  0
++         0  0  0  0  0  0  0  0  0  0  0  0  0  0  0  0  0
%c cc cc ccc ccc cccc cccc cccc cccc ccccc ccccc ccccc ccccc
%c cc cc ccc ccc cccc cccc cccc cccc ccccc ccccc ccccc ccccc
%f  0.0000000  0.000000000  0.00000000000  0.000000000000000
%f  0.0000000  0.000000000  0.00000000000  0.000000000000000
%i    0    0    0    0      0      0      0      0         0
%i    0    0    0    0      0      0      0      0         0
/*      NGA, ST. LOUIS,MO.                                  
/*   EPHEMERIS COMPUTED FROM  3 DAYS OF DATA                
/* CCCCCCCCCCCCCCCCCCCCCCCCCCCCCCCCCCCCCCCCCCCCCCCCCCCCCCCCC
/* CCCCCCCCCCCCCCCCCCCCCCCCCCCCCCCCCCCCCCCCCCCCCCCCCCCCCCCCC
*  2011 12 10  7 15   .00000000                                                 
P  1  -8824.399904 -13775.796586 -20941.952894    135.336522                    
V  1  26305.058454  -3718.770617  -8636.114489       .169132                    
P  2 -15671.724940  13845.646451  16159.273064    369.528026                    
V  2 -20800.811191    -85.635442 -20701.265474       .017272                    
P  3  10307.880097 -23866.869374   4168.755762    806.333047                    
V  3   2174.598635   6813.827369  30633.985109       .051791                    
P  4 -25262.221604   6665.482829   5443.791151     28.799348                    
V  4  -7464.617957  -2434.243124 -29994.154291       .112753                    
P  5  -3322.848127  18276.495144  18915.638656   -255.998455                    
V  5 -15472.771202 -18584.419139  15341.091722      -.048499                    
P  6  14247.620907 -20791.323964   8074.693567     13.352364                    
V  6   -349.551676  10762.701911  29063.161570       .043025                    
P  7 -22070.245027  -6987.819721  13257.523131     42.392319                    
V  7  16452.459750  -3236.869207  25486.500141       .023602                    
P  8 -26673.270137  -1582.998533   2953.851089       .194959                    
V  8   3592.269149  -1199.868265  31872.561613       .000108                    
P  9   4342.139947  14474.228590 -22389.059276    123.980960                    
V  9 -26832.675016   3387.938838  -3115.561562       .025781                    
P 10 -17414.882651     24.644395  19921.979037    -21.704728                    
V 10 -13828.868027 -21757.420380 -11531.588547      -.012005                    
P 11  -2748.904232 -16932.531907 -20612.995890   -211.771756                    
V 11  24307.047057  -8529.267702   4172.533050      -.035071                    
P 12  10826.402717  23428.205109  -6642.664698     39.729844                    
V 12  -6450.395220  -5735.801369 -30531.349885       .022582                    
P 13 -10015.978051 -11394.127948  21655.428288    237.059595                    
V 13  13832.451105 -24069.434471  -6306.507112      -.020018                    
P 14  17742.018185  -8625.677585 -17537.889172    185.093250                    
V 14  -9175.023392  20735.704143 -19421.181913       .016843                    
P 15  -2135.527577  24260.926380 -10353.459126    -97.130046                    
V 15  -7892.461817  11049.951599  27696.639291       .009289                    
P 16   4442.181355 -17168.754021  19686.549697   -213.182229                    
V 16  14856.883521  20156.518055  14526.600676      -.019139                    
P 17 -17599.196943   6824.772775 -18433.719232    161.366509                    
V 17   8922.283503 -22130.880538 -16812.017899      -.020602                    
P 18  19605.430475  15074.494392  -9817.795682    171.144552                    
V 18   4895.922166  12324.109070  27377.946792       .018351                    
P 19   6448.252505 -24097.800603  -8594.907945   -213.596584                    
V 19   7871.309552  -8191.599241  29347.042933      -.039227                    
P 20 -12237.938681 -22841.412757  -6163.884995     57.728703                    
V 20   7479.482093   3830.289546 -29729.921934       .007772                    
P 21  24639.792842   4990.329198   9888.438039   -189.920159                    
V 21 -11466.362810   3899.464254  27275.492240      -.024693                    
P 22  18184.025272    947.140503 -19196.602420    143.135703                    
V 22  12958.587293  21240.720689  13092.662039      -.003390                    
P 23  -4115.698608 -19688.524290  17185.049174    252.151588                    
V 23  10894.430047 -19101.658848 -19657.904733      -.033069                    
P 25  17383.606092  19870.994633   3039.497519     29.780416                    
V 25    247.199798   4652.012209 -31557.190565       .007277                    
P 26 -12323.289513  23283.794999   -548.845393   -256.158919                    
V 26  -2065.147338  -1160.515368  32545.264046      -.137758                    
P 27  -2979.454056  14752.201585 -21187.805204    334.257847                    
V 27 -28251.112727   3438.866286   6580.097265       .038913                    
P 28 -18252.037014  -5605.243856 -18031.611217     91.760400                    
V 28 -12040.862821 -20653.197154  17834.463819       .035248                    
P 29  10281.568576  12442.187625  21162.878956    264.763700                    
V 29 -12458.049531  23639.541513  -7831.331338       .033475                    
P 30  11655.563611  -9620.815416  21486.128123     27.362395                    
V 30  18688.116551  21042.060591   -694.468183      -.101476                    
P 31  23659.077389  -8355.592239   9250.634495    180.536802                    
V 31  11476.059544    754.642678 -29109.724975       .050391                    
P 32  -4427.353745 -23538.550775 -11722.578488   -374.860345                    
V 32   9741.800366  11766.812132 -26307.237517      -.058881                    
EOF
